start=new Date('2023-01-26T00:00:00.000Z').valueOf();
sats=[{"RA_OF_ASC_NODE":"142.6206","CENTER_NAME":"EARTH","OBJECT_NAME":"STARLINK-3661","INCLINATION":"53.2183","RCS_SIZE":"LARGE","REF_FRAME":"TEME","NORAD_CAT_ID":"52129","TLE_LINE1":"1 52129U 22029AT  23025.61452650  .00002323  00000-0  16399-3 0  9996","MEAN_MOTION_DOT":"0.00002323","TLE_LINE2":"2 52129  53.2183 142.6206 0001884  75.8474 284.2727 15.08845346 48974","BSTAR":"0.00016399000000","REV_AT_EPOCH":"4897","SITE":"AFETR","SEMIMAJOR_AXIS":"6917.864","ELEMENT_SET_NO":"999","LAUNCH_DATE":"2022-03-19","MEAN_ANOMALY":"284.2727","ARG_OF_PERICENTER":"75.8474","GP_ID":"223690573","TIME_SYSTEM":"UTC","ECCENTRICITY":"0.00018840","OBJECT_ID":"2022-029AT","OBJECT_TYPE":"PAYLOAD","APOAPSIS":"541.032","FILE":"3761297","COUNTRY_CODE":"US","EPOCH":"2023-01-25T14:44:55.089600","DECAY_DATE":null,"EPHEMERIS_TYPE":"0","PERIAPSIS":"538.426","MEAN_ELEMENT_THEORY":"SGP4","CLASSIFICATION_TYPE":"U","MEAN_MOTION":"15.08845346","MEAN_MOTION_DDOT":"0.0000000000000","PERIOD":"95.437"},{"SEMIMAJOR_AXIS":"6917.902","LAUNCH_DATE":"2022-03-19","ELEMENT_SET_NO":"999","MEAN_ANOMALY":"254.9108","SITE":"AFETR","APOAPSIS":"540.515","FILE":"3761297","COUNTRY_CODE":"US","GP_ID":"223690825","ARG_OF_PERICENTER":"105.2004","TIME_SYSTEM":"UTC","OBJECT_ID":"2022-029AV","ECCENTRICITY":"0.00010820","OBJECT_TYPE":"PAYLOAD","PERIAPSIS":"539.018","MEAN_ELEMENT_THEORY":"SGP4","CLASSIFICATION_TYPE":"U","EPOCH":"2023-01-25T14:39:37.727712","DECAY_DATE":null,"EPHEMERIS_TYPE":"0","PERIOD":"95.438","MEAN_MOTION_DDOT":"0.0000000000000","MEAN_MOTION":"15.08833005","OBJECT_NAME":"STARLINK-3711","RA_OF_ASC_NODE":"142.6530","CENTER_NAME":"EARTH","RCS_SIZE":"LARGE","REF_FRAME":"TEME","NORAD_CAT_ID":"52131","INCLINATION":"53.2162","TLE_LINE1":"1 52131U 22029AV  23025.61085333 -.00000455  00000-0 -10502-4 0  9996","REV_AT_EPOCH":"4897","MEAN_MOTION_DOT":"-0.00000455","TLE_LINE2":"2 52131  53.2162 142.6530 0001082 105.2004 254.9108 15.08833005 48977","BSTAR":"-0.00001050200000"},{"TLE_LINE1":"1 52132U 22029AW  23025.61821524  .00001320  00000-0  10100-3 0  9990","REV_AT_EPOCH":"4897","TLE_LINE2":"2 52132  53.2151 142.6183 0001076 102.7682 257.3431 15.08839915 48979","MEAN_MOTION_DOT":"0.00001320","BSTAR":"0.00010100000000","OBJECT_NAME":"STARLINK-3718","RA_OF_ASC_NODE":"142.6183","CENTER_NAME":"EARTH","REF_FRAME":"TEME","RCS_SIZE":"LARGE","NORAD_CAT_ID":"52132","INCLINATION":"53.2151","PERIAPSIS":"539.001","MEAN_ELEMENT_THEORY":"SGP4","CLASSIFICATION_TYPE":"U","DECAY_DATE":null,"EPOCH":"2023-01-25T14:50:13.796736","EPHEMERIS_TYPE":"0","PERIOD":"95.438","MEAN_MOTION":"15.08839915","MEAN_MOTION_DDOT":"0.0000000000000","SEMIMAJOR_AXIS":"6917.881","MEAN_ANOMALY":"257.3431","ELEMENT_SET_NO":"999","LAUNCH_DATE":"2022-03-19","SITE":"AFETR","FILE":"3761297","APOAPSIS":"540.490","COUNTRY_CODE":"US","TIME_SYSTEM":"UTC","GP_ID":"223689574","ARG_OF_PERICENTER":"102.7682","OBJECT_TYPE":"PAYLOAD","OBJECT_ID":"2022-029AW","ECCENTRICITY":"0.00010760"},{"CLASSIFICATION_TYPE":"U","PERIAPSIS":"538.960","MEAN_ELEMENT_THEORY":"SGP4","EPHEMERIS_TYPE":"0","DECAY_DATE":null,"EPOCH":"2023-01-25T14:29:01.564512","PERIOD":"95.437","MEAN_MOTION_DDOT":"0.0000000000000","MEAN_MOTION":"15.08844644","MEAN_ANOMALY":"267.6500","ELEMENT_SET_NO":"999","LAUNCH_DATE":"2022-03-19","SEMIMAJOR_AXIS":"6917.866","SITE":"AFETR","COUNTRY_CODE":"US","FILE":"3761297","APOAPSIS":"540.503","OBJECT_TYPE":"PAYLOAD","ECCENTRICITY":"0.00011150","OBJECT_ID":"2022-029AX","TIME_SYSTEM":"UTC","GP_ID":"223689322","ARG_OF_PERICENTER":"92.4619","TLE_LINE1":"1 52133U 22029AX  23025.60349033  .00001879  00000-0  13611-3 0  9999","REV_AT_EPOCH":"4897","BSTAR":"0.00013611000000","TLE_LINE2":"2 52133  53.2158 142.6831 0001115  92.4619 267.6500 15.08844644 48972","MEAN_MOTION_DOT":"0.00001879","OBJECT_NAME":"STARLINK-3707","CENTER_NAME":"EARTH","RA_OF_ASC_NODE":"142.6831","NORAD_CAT_ID":"52133","REF_FRAME":"TEME","RCS_SIZE":"LARGE","INCLINATION":"53.2158"},{"OBJECT_NAME":"STARLINK-3721","CENTER_NAME":"EARTH","RA_OF_ASC_NODE":"142.6661","NORAD_CAT_ID":"52134","REF_FRAME":"TEME","RCS_SIZE":"LARGE","INCLINATION":"53.2153","TLE_LINE1":"1 52134U 22029AY  23025.60717935  .00000755  00000-0  65500-4 0  9997","REV_AT_EPOCH":"4897","BSTAR":"0.00006550000000","TLE_LINE2":"2 52134  53.2153 142.6661 0001290  79.2917 280.8220 15.08835384 48974","MEAN_MOTION_DOT":"0.00000755","MEAN_ANOMALY":"280.8220","ELEMENT_SET_NO":"999","LAUNCH_DATE":"2022-03-19","SEMIMAJOR_AXIS":"6917.894","SITE":"AFETR","COUNTRY_CODE":"US","FILE":"3761297","APOAPSIS":"540.652","OBJECT_TYPE":"PAYLOAD","OBJECT_ID":"2022-029AY","ECCENTRICITY":"0.00012900","TIME_SYSTEM":"UTC","ARG_OF_PERICENTER":"79.2917","GP_ID":"223690073","CLASSIFICATION_TYPE":"U","MEAN_ELEMENT_THEORY":"SGP4","PERIAPSIS":"538.867","EPHEMERIS_TYPE":"0","DECAY_DATE":null,"EPOCH":"2023-01-25T14:34:20.295840","PERIOD":"95.438","MEAN_MOTION":"15.08835384","MEAN_MOTION_DDOT":"0.0000000000000"},{"TLE_LINE1":"1 52135U 22029AZ  23025.59245421  .00004146  00000-0  27844-3 0  9998","REV_AT_EPOCH":"4897","TLE_LINE2":"2 52135  53.2140 142.7293 0001039  97.1337 262.9773 15.08837439 48976","MEAN_MOTION_DOT":"0.00004146","BSTAR":"0.00027844000000","OBJECT_NAME":"STARLINK-3729","RA_OF_ASC_NODE":"142.7293","CENTER_NAME":"EARTH","REF_FRAME":"TEME","RCS_SIZE":"LARGE","NORAD_CAT_ID":"52135","INCLINATION":"53.2140","PERIAPSIS":"539.034","MEAN_ELEMENT_THEORY":"SGP4","CLASSIFICATION_TYPE":"U","DECAY_DATE":null,"EPOCH":"2023-01-25T14:13:08.043744","EPHEMERIS_TYPE":"0","PERIOD":"95.438","MEAN_MOTION_DDOT":"0.0000000000000","MEAN_MOTION":"15.08837439","SEMIMAJOR_AXIS":"6917.888","MEAN_ANOMALY":"262.9773","ELEMENT_SET_NO":"999","LAUNCH_DATE":"2022-03-19","SITE":"AFETR","FILE":"3761297","APOAPSIS":"540.472","COUNTRY_CODE":"US","TIME_SYSTEM":"UTC","GP_ID":"223690325","ARG_OF_PERICENTER":"97.1337","OBJECT_TYPE":"PAYLOAD","ECCENTRICITY":"0.00010390","OBJECT_ID":"2022-029AZ"},{"CLASSIFICATION_TYPE":"U","PERIAPSIS":"538.692","MEAN_ELEMENT_THEORY":"SGP4","EPHEMERIS_TYPE":"0","DECAY_DATE":null,"EPOCH":"2023-01-25T14:23:44.155968","PERIOD":"95.437","MEAN_MOTION":"15.08842289","MEAN_MOTION_DDOT":"0.0000000000000","MEAN_ANOMALY":"285.4489","LAUNCH_DATE":"2022-03-19","ELEMENT_SET_NO":"999","SEMIMAJOR_AXIS":"6917.873","SITE":"AFETR","COUNTRY_CODE":"US","FILE":"3761297","APOAPSIS":"540.784","OBJECT_TYPE":"PAYLOAD","OBJECT_ID":"2022-029BA","ECCENTRICITY":"0.00015120","TIME_SYSTEM":"UTC","GP_ID":"223689074","ARG_OF_PERICENTER":"74.6670","TLE_LINE1":"1 52136U 22029BA  23025.59981662 -.00000043  00000-0  15405-4 0  9997","REV_AT_EPOCH":"4897","BSTAR":"0.00001540500000","TLE_LINE2":"2 52136  53.2163 142.7017 0001512  74.6670 285.4489 15.08842289 48975","MEAN_MOTION_DOT":"-0.00000043","OBJECT_NAME":"STARLINK-3720","CENTER_NAME":"EARTH","RA_OF_ASC_NODE":"142.7017","NORAD_CAT_ID":"52136","REF_FRAME":"TEME","RCS_SIZE":"LARGE","INCLINATION":"53.2163"},{"TLE_LINE1":"1 52137U 22029BB  23025.58877735  .00000805  00000-0  68712-4 0  9996","BSTAR":"0.00006871200000","TLE_LINE2":"2 52137  53.2162 142.7548 0002373  74.8235 285.3019 15.08839218 48975","MEAN_MOTION_DOT":"0.00000805","REV_AT_EPOCH":"4897","CENTER_NAME":"EARTH","RA_OF_ASC_NODE":"142.7548","OBJECT_NAME":"STARLINK-3733","INCLINATION":"53.2162","NORAD_CAT_ID":"52137","REF_FRAME":"TEME","RCS_SIZE":"LARGE","EPHEMERIS_TYPE":"0","DECAY_DATE":null,"EPOCH":"2023-01-25T14:07:50.363040","CLASSIFICATION_TYPE":"U","PERIAPSIS":"538.106","MEAN_ELEMENT_THEORY":"SGP4","MEAN_MOTION":"15.08839218","MEAN_MOTION_DDOT":"0.0000000000000","PERIOD":"95.438","SITE":"AFETR","MEAN_ANOMALY":"285.3019","ELEMENT_SET_NO":"999","LAUNCH_DATE":"2022-03-19","SEMIMAJOR_AXIS":"6917.883","OBJECT_TYPE":"PAYLOAD","ECCENTRICITY":"0.00023730","OBJECT_ID":"2022-029BB","TIME_SYSTEM":"UTC","GP_ID":"223689822","ARG_OF_PERICENTER":"74.8235","COUNTRY_CODE":"US","FILE":"3761297","APOAPSIS":"541.389"},{"BSTAR":"0.00024850000000","MEAN_MOTION_DOT":"0.00003669","TLE_LINE2":"2 52138  53.2160 142.7173 0001703  93.8345 266.2842 15.08839892 48977","REV_AT_EPOCH":"4897","TLE_LINE1":"1 52138U 22029BC  23025.59613822  .00003669  00000-0  24850-3 0  9998","INCLINATION":"53.2160","NORAD_CAT_ID":"52138","RCS_SIZE":"LARGE","REF_FRAME":"TEME","CENTER_NAME":"EARTH","RA_OF_ASC_NODE":"142.7173","OBJECT_NAME":"STARLINK-3723","MEAN_MOTION":"15.08839892","MEAN_MOTION_DDOT":"0.0000000000000","PERIOD":"95.438","EPHEMERIS_TYPE":"0","EPOCH":"2023-01-25T14:18:26.342208","DECAY_DATE":null,"CLASSIFICATION_TYPE":"U","PERIAPSIS":"538.568","MEAN_ELEMENT_THEORY":"SGP4","OBJECT_ID":"2022-029BC","ECCENTRICITY":"0.00017030","OBJECT_TYPE":"PAYLOAD","GP_ID":"223690574","ARG_OF_PERICENTER":"93.8345","TIME_SYSTEM":"UTC","COUNTRY_CODE":"US","APOAPSIS":"540.924","FILE":"3761297","SITE":"AFETR","LAUNCH_DATE":"2022-03-19","ELEMENT_SET_NO":"999","MEAN_ANOMALY":"266.2842","SEMIMAJOR_AXIS":"6917.881"},{"SITE":"AFETR","SEMIMAJOR_AXIS":"6917.857","MEAN_ANOMALY":"256.4626","LAUNCH_DATE":"2022-03-19","ELEMENT_SET_NO":"999","TIME_SYSTEM":"UTC","ARG_OF_PERICENTER":"103.6597","GP_ID":"223718123","OBJECT_TYPE":"PAYLOAD","OBJECT_ID":"2022-029BD","ECCENTRICITY":"0.00020690","FILE":"3761360","APOAPSIS":"541.153","COUNTRY_CODE":"US","DECAY_DATE":null,"EPOCH":"2023-01-25T15:26:00.913632","EPHEMERIS_TYPE":"0","PERIAPSIS":"538.291","MEAN_ELEMENT_THEORY":"SGP4","CLASSIFICATION_TYPE":"U","MEAN_MOTION_DDOT":"0.0000000000000","MEAN_MOTION":"15.08847664","PERIOD":"95.437","RA_OF_ASC_NODE":"152.5084","CENTER_NAME":"EARTH","OBJECT_NAME":"STARLINK-3730","INCLINATION":"53.2157","REF_FRAME":"TEME","RCS_SIZE":"LARGE","NORAD_CAT_ID":"52139","TLE_LINE1":"1 52139U 22029BD  23025.64306613  .00007288  00000-0  47544-3 0  9998","TLE_LINE2":"2 52139  53.2157 152.5084 0002069 103.6597 256.4626 15.08847664 48831","MEAN_MOTION_DOT":"0.00007288","BSTAR":"0.00047544000000","REV_AT_EPOCH":"4883"}];
